{
  "norad_id": 28737,
  "name": "SJ-7",
  "history": [
    {
      "epoch": "2026-03-28T19:48:52.311744Z",
      "apogee_km": 515.066785936071,
      "perigee_km": 494.740066271318,
      "latitude_deg": 3.313277420793464e-05,
      "longitude_deg": -7.649959848942865,
      "height_km": 500.75796621958335,
      "semi_major_axis_km": 6883.040426103694,
      "eccentricity": 0.00147658,
      "inclination_deg": 97.7382,
      "raan_deg": 115.8085,
      "arg_perigee_deg": 315.3702,
      "mean_anomaly_deg": 44.6343,
      "mean_motion_rev_day": 15.20310453
    },
    {
      "epoch": "2026-03-29T00:33:12.213792Z",
      "apogee_km": 515.0498073426288,
      "perigee_km": 494.7297357077314,
      "latitude_deg": -2.688000678450918e-05,
      "longitude_deg": -78.72489512911102,
      "height_km": 500.8417187945091,
      "semi_major_axis_km": 6883.026771525179,
      "eccentricity": 0.0014761,
      "inclination_deg": 97.7382,
      "raan_deg": 116.0111,
      "arg_perigee_deg": 314.6126,
      "mean_anomaly_deg": 45.3903,
      "mean_motion_rev_day": 15.20314977
    },
    {
      "epoch": "2026-03-30T01:49:37.459200Z",
      "apogee_km": 514.9143789364689,
      "perigee_km": 494.70137237902327,
      "latitude_deg": 1.4758177013854937e-06,
      "longitude_deg": -97.78754070256781,
      "height_km": 501.3043782487529,
      "semi_major_axis_km": 6882.944875657746,
      "eccentricity": 0.00146834,
      "inclination_deg": 97.7381,
      "raan_deg": 117.0916,
      "arg_perigee_deg": 310.7049,
      "mean_anomaly_deg": 49.2909,
      "mean_motion_rev_day": 15.20342111
    },
    {
      "epoch": "2026-03-30T12:53:03.038208Z",
      "apogee_km": 514.8486898291658,
      "perigee_km": 494.70460411684326,
      "latitude_deg": -7.954062996741478e-05,
      "longitude_deg": 96.37459239935252,
      "height_km": 501.5303237343897,
      "semi_major_axis_km": 6882.913646973005,
      "eccentricity": 0.00146334,
      "inclination_deg": 97.7378,
      "raan_deg": 117.5644,
      "arg_perigee_deg": 308.9666,
      "mean_anomaly_deg": 51.0263,
      "mean_motion_rev_day": 15.20352458
    },
    {
      "epoch": "2026-03-30T14:27:49.531104Z",
      "apogee_km": 514.8405777588323,
      "perigee_km": 494.70503809033744,
      "latitude_deg": 1.3773995156727286e-05,
      "longitude_deg": 72.68348836460694,
      "height_km": 501.56269250276097,
      "semi_major_axis_km": 6882.909807924585,
      "eccentricity": 0.00146272,
      "inclination_deg": 97.7379,
      "raan_deg": 117.6319,
      "arg_perigee_deg": 308.7217,
      "mean_anomaly_deg": 51.2709,
      "mean_motion_rev_day": 15.2035373
    },
    {
      "epoch": "2026-03-31T12:34:39.819072Z",
      "apogee_km": 514.7295758228656,
      "perigee_km": 494.7015760832537,
      "latitude_deg": -1.5872563788219794e-05,
      "longitude_deg": 101.01117193470056,
      "height_km": 502.0409875333707,
      "semi_major_axis_km": 6882.852575953059,
      "eccentricity": 0.00145492,
      "inclination_deg": 97.7373,
      "raan_deg": 118.5773,
      "arg_perigee_deg": 305.1297,
      "mean_anomaly_deg": 54.8573,
      "mean_motion_rev_day": 15.20372693
    },
    {
      "epoch": "2026-04-01T12:16:15.523392Z",
      "apogee_km": 514.6632984729104,
      "perigee_km": 494.66050829988944,
      "latitude_deg": 1.393330265702174e-06,
      "longitude_deg": 105.65205564928486,
      "height_km": 502.5640122994828,
      "semi_major_axis_km": 6882.7989033864,
      "eccentricity": 0.0014531,
      "inclination_deg": 97.7365,
      "raan_deg": 119.59,
      "arg_perigee_deg": 301.2317,
      "mean_anomaly_deg": 58.7493,
      "mean_motion_rev_day": 15.20390477
    },
    {
      "epoch": "2026-04-02T19:51:41.336064Z",
      "apogee_km": 514.5150596879312,
      "perigee_km": 494.59077360961965,
      "latitude_deg": 5.606791307110842e-05,
      "longitude_deg": -8.152279236160618,
      "height_km": 503.2704824084268,
      "semi_major_axis_km": 6882.689916648775,
      "eccentricity": 0.00144742,
      "inclination_deg": 97.7362,
      "raan_deg": 120.9406,
      "arg_perigee_deg": 296.0207,
      "mean_anomaly_deg": 63.9537,
      "mean_motion_rev_day": 15.2042659
    },
    {
      "epoch": "2026-04-03T14:48:55.386144Z",
      "apogee_km": 514.4078748506763,
      "perigee_km": 494.5556492933556,
      "latitude_deg": 3.5601738730080824e-05,
      "longitude_deg": 67.5712724745145,
      "height_km": 503.6785730302894,
      "semi_major_axis_km": 6882.618762072016,
      "eccentricity": 0.0014422,
      "inclination_deg": 97.736,
      "raan_deg": 121.7511,
      "arg_perigee_deg": 293.0798,
      "mean_anomaly_deg": 66.8916,
      "mean_motion_rev_day": 15.20450168
    },
    {
      "epoch": "2026-04-04T14:30:26.422272Z",
      "apogee_km": 514.2820257234889,
      "perigee_km": 494.5153831803036,
      "latitude_deg": 6.374249543484189e-05,
      "longitude_deg": 72.23205687263044,
      "height_km": 504.2144671179322,
      "semi_major_axis_km": 6882.535704451896,
      "eccentricity": 0.001436,
      "inclination_deg": 97.7362,
      "raan_deg": 122.7642,
      "arg_perigee_deg": 289.335,
      "mean_anomaly_deg": 70.6332,
      "mean_motion_rev_day": 15.20477691
    },
    {
      "epoch": "2026-04-05T14:11:56.181408Z",
      "apogee_km": 514.2080193026331,
      "perigee_km": 494.46770490314975,
      "latitude_deg": -1.3993291272117785e-05,
      "longitude_deg": 76.89829011036993,
      "height_km": 504.7976347780162,
      "semi_major_axis_km": 6882.474862102891,
      "eccentricity": 0.0014341,
      "inclination_deg": 97.7363,
      "raan_deg": 123.7774,
      "arg_perigee_deg": 285.4436,
      "mean_anomaly_deg": 74.5214,
      "mean_motion_rev_day": 15.20497853
    },
    {
      "epoch": "2026-04-06T01:15:17.735040Z",
      "apogee_km": 514.186881305629,
      "perigee_km": 494.44002975663807,
      "latitude_deg": -5.517715160760252e-05,
      "longitude_deg": -88.92276524373295,
      "height_km": 505.07562841583024,
      "semi_major_axis_km": 6882.450455531133,
      "eccentricity": 0.00143458,
      "inclination_deg": 97.7363,
      "raan_deg": 124.2502,
      "arg_perigee_deg": 283.6256,
      "mean_anomaly_deg": 76.338,
      "mean_motion_rev_day": 15.20505941
    },
    {
      "epoch": "2026-04-07T10:25:21.152640Z",
      "apogee_km": 514.1317778802959,
      "perigee_km": 494.3461857602397,
      "latitude_deg": 1.3204018223790516e-05,
      "longitude_deg": 133.61913630551047,
      "height_km": 505.920715285094,
      "semi_major_axis_km": 6882.375981820267,
      "eccentricity": 0.00143741,
      "inclination_deg": 97.7365,
      "raan_deg": 125.6685,
      "arg_perigee_deg": 278.1736,
      "mean_anomaly_deg": 81.7868,
      "mean_motion_rev_day": 15.20530621
    },
    {
      "epoch": "2026-04-07T19:53:56.133024Z",
      "apogee_km": 514.1148311451489,
      "perigee_km": 494.33904660318876,
      "latitude_deg": 5.683629188258939e-06,
      "longitude_deg": -8.510596675119874,
      "height_km": 506.17563076889445,
      "semi_major_axis_km": 6882.3639388741685,
      "eccentricity": 0.0014367,
      "inclination_deg": 97.7365,
      "raan_deg": 126.0737,
      "arg_perigee_deg": 276.618,
      "mean_anomaly_deg": 83.3419,
      "mean_motion_rev_day": 15.20534612
    },
    {
      "epoch": "2026-04-08T14:51:05.596128Z",
      "apogee_km": 514.0715974408868,
      "perigee_km": 494.30871971194847,
      "latitude_deg": -2.023048816919072e-05,
      "longitude_deg": 67.23211801361758,
      "height_km": 506.67057629596883,
      "semi_major_axis_km": 6882.327158576417,
      "eccentricity": 0.00143577,
      "inclination_deg": 97.7366,
      "raan_deg": 126.8842,
      "arg_perigee_deg": 273.5273,
      "mean_anomaly_deg": 86.4319,
      "mean_motion_rev_day": 15.20546801
    },
    {
      "epoch": "2026-04-09T12:57:45.979200Z",
      "apogee_km": 514.008422197845,
      "perigee_km": 494.2851732902709,
      "latitude_deg": 5.6627490963320094e-05,
      "longitude_deg": 95.60126664500562,
      "height_km": 507.25033478297007,
      "semi_major_axis_km": 6882.283797744058,
      "eccentricity": 0.0014329,
      "inclination_deg": 97.7365,
      "raan_deg": 127.8297,
      "arg_perigee_deg": 269.9128,
      "mean_anomaly_deg": 90.0465,
      "mean_motion_rev_day": 15.20561171
    },
    {
      "epoch": "2026-04-10T01:35:51.597024Z",
      "apogee_km": 513.9857167716282,
      "perigee_km": 494.26129580581437,
      "latitude_deg": -4.910058298800191e-05,
      "longitude_deg": -93.90062481882647,
      "height_km": 507.578619197007,
      "semi_major_axis_km": 6882.2605062887205,
      "eccentricity": 0.00143299,
      "inclination_deg": 97.7365,
      "raan_deg": 128.3701,
      "arg_perigee_deg": 267.8703,
      "mean_anomaly_deg": 92.089,
      "mean_motion_rev_day": 15.2056889
    },
    {
      "epoch": "2026-04-11T12:20:35.943360Z",
      "apogee_km": 513.9484602011999,
      "perigee_km": 494.1813998178259,
      "latitude_deg": 1.1049034357067517e-05,
      "longitude_deg": 104.97323441424088,
      "height_km": 508.4856181925372,
      "semi_major_axis_km": 6882.201930009513,
      "eccentricity": 0.0014361,
      "inclination_deg": 97.7362,
      "raan_deg": 129.8557,
      "arg_perigee_deg": 262.256,
      "mean_anomaly_deg": 97.7044,
      "mean_motion_rev_day": 15.20588303
    },
    {
      "epoch": "2026-04-13T00:40:04.584576Z",
      "apogee_km": 513.9343896310093,
      "perigee_km": 494.1086802530599,
      "latitude_deg": -5.9809488725595525e-05,
      "longitude_deg": -79.83469490214607,
      "height_km": 509.4476761594602,
      "semi_major_axis_km": 6882.158534942034,
      "eccentricity": 0.00144037,
      "inclination_deg": 97.7361,
      "raan_deg": 131.4089,
      "arg_perigee_deg": 256.3646,
      "mean_anomaly_deg": 103.5984,
      "mean_motion_rev_day": 15.20602685
    }
  ]
}